

*******************************************************************************
Ephemeris / WWW_USER Tue Apr 28 15:03:51 2026 Pasadena, USA      / Horizons
*******************************************************************************
Target body name: Moon (301)                      {source: DE441}
Center body name: Solar System Barycenter (0)     {source: DE441}
Center-site name: BODY CENTER
*******************************************************************************
Start time      : A.D. 2021-Dec-25 13:01:09.1840 TDB
Stop  time      : A.D. 2022-May-21 00:00:00.0000 TDB
Step-size       : 15 minutes
*******************************************************************************
Center geodetic : 0.0, 0.0, 0.0                   {E-lon(deg),Lat(deg),Alt(km)}
Center cylindric: 0.0, 0.0, 0.0                   {E-lon(deg),Dxy(km),Dz(km)}
Center radii    : (undefined)
Output units    : KM-S
Calendar mode   : Mixed Julian/Gregorian
Output type     : GEOMETRIC cartesian states
Output format   : 2 (position and velocity)
Reference frame : Ecliptic of J2000.0
*******************************************************************************
            JDTDB,            Calendar Date (TDB),                      X,                      Y,                      Z,                     VX,                     VY,                     VZ,
**************************************************************************************************************************************************************************************************
$$SOE
2459629.584134074, A.D. 2022-Feb-19 02:01:09.1840, -1.298612724251910E+08,  7.417864347970057E+07,  5.190001077975705E+04, -1.533278562485719E+01, -2.696374476785380E+01, -4.851929340215300E-02,
2459629.594550741, A.D. 2022-Feb-19 02:16:09.1840, -1.298750687165124E+08,  7.415437486742365E+07,  5.185626227435470E+04, -1.532563935224513E+01, -2.696650361416100E+01, -4.869956667513442E-02,
2459629.604967407, A.D. 2022-Feb-19 02:31:09.1840, -1.298888585757001E+08,  7.413010377521561E+07,  5.181235163340345E+04, -1.531849199670215E+01, -2.696925572534630E+01, -4.887959443008860E-02,
2459629.615384074, A.D. 2022-Feb-19 02:46:09.1840, -1.299026420017859E+08,  7.410583020913954E+07,  5.176827907840535E+04, -1.531134357252132E+01, -2.697200109814715E+01, -4.905937544998373E-02,
2459629.625800741, A.D. 2022-Feb-19 03:01:09.1840, -1.299164189938144E+08,  7.408155417526142E+07,  5.172404483198002E+04, -1.530419409401153E+01, -2.697473972933638E+01, -4.923890851837598E-02,
2459629.636217407, A.D. 2022-Feb-19 03:16:09.1840, -1.299301895508431E+08,  7.405727567965017E+07,  5.167964911782369E+04, -1.529704357549728E+01, -2.697747161572225E+01, -4.941819241944323E-02,
2459629.646634074, A.D. 2022-Feb-19 03:31:09.1840, -1.299439536719426E+08,  7.403299472837752E+07,  5.163509216073528E+04, -1.528989203131872E+01, -2.698019675414854E+01, -4.959722593798332E-02,
2459629.657050741, A.D. 2022-Feb-19 03:46:09.1840, -1.299577113561961E+08,  7.400871132751803E+07,  5.159037418661267E+04, -1.528273947583143E+01, -2.698291514149463E+01, -4.977600785941938E-02,
2459629.667467407, A.D. 2022-Feb-19 04:01:09.1840, -1.299714626027000E+08,  7.398442548314907E+07,  5.154549542243779E+04, -1.527558592340640E+01, -2.698562677467550E+01, -4.995453696984065E-02,
2459629.677884074, A.D. 2022-Feb-19 04:16:09.1840, -1.299852074105635E+08,  7.396013720135079E+07,  5.150045609627292E+04, -1.526843138842996E+01, -2.698833165064186E+01, -5.013281205596343E-02,
2459629.688300741, A.D. 2022-Feb-19 04:31:09.1840, -1.299989457789087E+08,  7.393584648820598E+07,  5.145525643730536E+04, -1.526127588530358E+01, -2.699102976638022E+01, -5.031083190518615E-02,
2459629.698717407, A.D. 2022-Feb-19 04:46:09.1840, -1.300126777068709E+08,  7.391155334980026E+07,  5.140989667577296E+04, -1.525411942844389E+01, -2.699372111891285E+01, -5.048859530557870E-02,
2459629.709134074, A.D. 2022-Feb-19 05:01:09.1840, -1.300264031935981E+08,  7.388725779222180E+07,  5.136437704304606E+04, -1.524696203228252E+01, -2.699640570529799E+01, -5.066610104589309E-02,
2459629.719550741, A.D. 2022-Feb-19 05:16:09.1840, -1.300401222382516E+08,  7.386295982156144E+07,  5.131869777156040E+04, -1.523980371126601E+01, -2.699908352262980E+01, -5.084334791557410E-02,
2459629.729967407, A.D. 2022-Feb-19 05:31:09.1840, -1.300538348400053E+08,  7.383865944391263E+07,  5.127285909483209E+04, -1.523264447985574E+01, -2.700175456803849E+01, -5.102033470478418E-02,
2459629.740384074, A.D. 2022-Feb-19 05:46:09.1840, -1.300675409980465E+08,  7.381435666537140E+07,  5.122686124747619E+04, -1.522548435252780E+01, -2.700441883869033E+01, -5.119706020439097E-02,
2459629.750800741, A.D. 2022-Feb-19 06:01:09.1840, -1.300812407115754E+08,  7.379005149203627E+07,  5.118070446520671E+04, -1.521832334377295E+01, -2.700707633178777E+01, -5.137352320599398E-02,
2459629.761217407, A.D. 2022-Feb-19 06:16:09.1840, -1.300949339798052E+08,  7.376574393000828E+07,  5.113438898481429E+04, -1.521116146809644E+01, -2.700972704456944E+01, -5.154972250191747E-02,
2459629.771634074, A.D. 2022-Feb-19 06:31:09.1840, -1.301086208019623E+08,  7.374143398539095E+07,  5.108791504418105E+04, -1.520399874001800E+01, -2.701237097431027E+01, -5.172565688526021E-02,
2459629.782050741, A.D. 2022-Feb-19 06:46:09.1840, -1.301223011772859E+08,  7.371712166429023E+07,  5.104128288226202E+04, -1.519683517407168E+01, -2.701500811832151E+01, -5.190132514984569E-02,
2459629.792467407, A.D. 2022-Feb-19 07:01:09.1840, -1.301359751050286E+08,  7.369280697281449E+07,  5.099449273910746E+04, -1.518967078480580E+01, -2.701763847395081E+01, -5.207672609029323E-02,
2459629.802884074, A.D. 2022-Feb-19 07:16:09.1840, -1.301496425844559E+08,  7.366848991707443E+07,  5.094754485585541E+04, -1.518250558678279E+01, -2.702026203858227E+01, -5.225185850197711E-02,
2459629.813300741, A.D. 2022-Feb-19 07:31:09.1840, -1.301633036148466E+08,  7.364417050318311E+07,  5.090043947471678E+04, -1.517533959457919E+01, -2.702287880963652E+01, -5.242672118107805E-02,
2459629.823717407, A.D. 2022-Feb-19 07:46:09.1840, -1.301769581954923E+08,  7.361984873725592E+07,  5.085317683901638E+04, -1.516817282278544E+01, -2.702548878457075E+01, -5.260131292456904E-02,
2459629.834134074, A.D. 2022-Feb-19 08:01:09.1840, -1.301906063256981E+08,  7.359552462541047E+07,  5.080575719310343E+04, -1.516100528600587E+01, -2.702809196087882E+01, -5.277563253022421E-02,
2459629.844550741, A.D. 2022-Feb-19 08:16:09.1840, -1.302042480047820E+08,  7.357119817376666E+07,  5.075818078245595E+04, -1.515383699885858E+01, -2.703068833609123E+01, -5.294967879666146E-02,
2459629.854967407, A.D. 2022-Feb-19 08:31:09.1840, -1.302178832320753E+08,  7.354686938844657E+07,  5.071044785362855E+04, -1.514666797597531E+01, -2.703327790777530E+01, -5.312345052329270E-02,
2459629.865384074, A.D. 2022-Feb-19 08:46:09.1840, -1.302315120069224E+08,  7.352253827557445E+07,  5.066255865424499E+04, -1.513949823200136E+01, -2.703586067353512E+01, -5.329694651040207E-02,
2459629.875800741, A.D. 2022-Feb-19 09:01:09.1840, -1.302451343286810E+08,  7.349820484127669E+07,  5.061451343299076E+04, -1.513232778159551E+01, -2.703843663101167E+01, -5.347016555910677E-02,
2459629.886217407, A.D. 2022-Feb-19 09:16:09.1840, -1.302587501967218E+08,  7.347386909168181E+07,  5.056631243966892E+04, -1.512515663942991E+01, -2.704100577788286E+01, -5.364310647139625E-02,
2459629.896634074, A.D. 2022-Feb-19 09:31:09.1840, -1.302723596104288E+08,  7.344953103292036E+07,  5.051795592514426E+04, -1.511798482018996E+01, -2.704356811186358E+01, -5.381576805012322E-02,
2459629.907050741, A.D. 2022-Feb-19 09:46:09.1840, -1.302859625691994E+08,  7.342519067112499E+07,  5.046944414133951E+04, -1.511081233857425E+01, -2.704612363070578E+01, -5.398814909902505E-02,
2459629.917467407, A.D. 2022-Feb-19 10:01:09.1840, -1.302995590724440E+08,  7.340084801243030E+07,  5.042077734128758E+04, -1.510363920929441E+01, -2.704867233219852E+01, -5.416024842272371E-02,
2459629.927884074, A.D. 2022-Feb-19 10:16:09.1840, -1.303131491195862E+08,  7.337650306297289E+07,  5.037195577906072E+04, -1.509646544707507E+01, -2.705121421416800E+01, -5.433206482676134E-02,
2459629.938300741, A.D. 2022-Feb-19 10:31:09.1840, -1.303267327100632E+08,  7.335215582889131E+07,  5.032297970982268E+04, -1.508929106665372E+01, -2.705374927447765E+01, -5.450359711757535E-02,
2459629.948717407, A.D. 2022-Feb-19 10:46:09.1840, -1.303403098433252E+08,  7.332780631632596E+07,  5.027384938983247E+04, -1.508211608278061E+01, -2.705627751102817E+01, -5.467484410253576E-02,
2459629.959134074, A.D. 2022-Feb-19 11:01:09.1840, -1.303538805188356E+08,  7.330345453141919E+07,  5.022456507639214E+04, -1.507494051021867E+01, -2.705879892175761E+01, -5.484580458993982E-02,
2459629.969550741, A.D. 2022-Feb-19 11:16:09.1840, -1.303674447360714E+08,  7.327910048031515E+07,  5.017512702788413E+04, -1.506776436374340E+01, -2.706131350464138E+01, -5.501647738903692E-02,
2459629.979967407, A.D. 2022-Feb-19 11:31:09.1840, -1.303810024945226E+08,  7.325474416915978E+07,  5.012553550375625E+04, -1.506058765814276E+01, -2.706382125769234E+01, -5.518686131001971E-02,
2459629.990384074, A.D. 2022-Feb-19 11:46:09.1840, -1.303945537936928E+08,  7.323038560410084E+07,  5.007579076454043E+04, -1.505341040821709E+01, -2.706632217896085E+01, -5.535695516405781E-02,
2459630.000800741, A.D. 2022-Feb-19 12:01:09.1840, -1.304080986330986E+08,  7.320602479128776E+07,  5.002589307184145E+04, -1.504623262877898E+01, -2.706881626653481E+01, -5.552675776329075E-02,
2459630.011217407, A.D. 2022-Feb-19 12:16:09.1840, -1.304216370122702E+08,  7.318166173687175E+07,  4.997584268829972E+04, -1.503905433465320E+01, -2.707130351853975E+01, -5.569626792083149E-02,
2459630.021634074, A.D. 2022-Feb-19 12:31:09.1840, -1.304351689307510E+08,  7.315729644700561E+07,  4.992563987766579E+04, -1.503187554067660E+01, -2.707378393313883E+01, -5.586548445080552E-02,
